[{"OBJECT_NAME":"GOES 19","OBJECT_ID":"2024-119A","EPOCH":"2026-04-25T20:49:38.771040","MEAN_MOTION":1.00270221,"ECCENTRICITY":5.76e-5,"INCLINATION":0.0279,"RA_OF_ASC_NODE":93.9673,"ARG_OF_PERICENTER":349.8122,"MEAN_ANOMALY":7.3054,"EPHEMERIS_TYPE":0,"CLASSIFICATION_TYPE":"U","NORAD_CAT_ID":60133,"ELEMENT_SET_NO":999,"REV_AT_EPOCH":643,"BSTAR":0,"MEAN_MOTION_DOT":-2.62e-6,"MEAN_MOTION_DDOT":0},{"OBJECT_NAME":"FENGYUN 3H","OBJECT_ID":"2025-219A","EPOCH":"2026-04-25T19:48:45.781632","MEAN_MOTION":14.19943815,"ECCENTRICITY":8.13e-5,"INCLINATION":98.674,"RA_OF_ASC_NODE":57.6216,"ARG_OF_PERICENTER":105.5714,"MEAN_ANOMALY":254.5553,"EPHEMERIS_TYPE":0,"CLASSIFICATION_TYPE":"U","NORAD_CAT_ID":65815,"ELEMENT_SET_NO":999,"REV_AT_EPOCH":2995,"BSTAR":4.264e-5,"MEAN_MOTION_DOT":4.7e-7,"MEAN_MOTION_DDOT":0}]
