GOES 19                 
1 60133U 24119A   26115.86780985 -.00000262  00000+0  00000+0 0  9995
2 60133   0.0279  93.9673 0000576 349.8122   7.3054  1.00270221  6434
FENGYUN 3H              
1 65815U 25219A   26115.82552989  .00000047  00000+0  42640-4 0  9997
2 65815  98.6740  57.6216 0000812 105.5714 254.5553 14.19943816 29952
